OSCAR 7 (AO-7)          
1 07530U 74089B   26169.32896865 -.00000049  00000+0 -18087-4 0  9996
2 07530 101.9900 182.5876 0012587 127.9839 243.9344 12.53698116360668
PHASE 3B (AO-10)        
1 14129U 83058B   26168.36952042  .00000190  00000+0  00000+0 0  9993
2 14129  25.9123 219.5345 6010777 115.7182 316.6307  2.05868747295495
UOSAT 2 (UO-11)         
1 14781U 84021B   26168.89257812  .00000920  00000+0  99183-4 0  9995
2 14781  97.8058 134.4592 0007720 170.0006 190.1367 14.90784781257233
LUSAT (LO-19)           
1 20442U 90005G   26169.01918789  .00000079  00000+0  44982-4 0  9999
2 20442  98.8850 190.8477 0011167 198.5761 161.5016 14.34123408902518
EYESAT A (AO-27)        
1 22825U 93061C   26169.11865723  .00000076  00000+0  45857-4 0  9990
2 22825  98.6880 236.5319 0009539  97.3828 262.8439 14.30942518707131
ITAMSAT (IO-26)         
1 22826U 93061D   26169.16769500  .00000076  00000+0  45488-4 0  9992
2 22826  98.6828 236.4984 0010062  82.4093 277.8232 14.31369433707455
RADIO ROSTO (RS15)      
1 23439U 94085A   26168.91418272 -.00000050  00000+0 -20634-3 0  9998
2 23439  64.8179 302.0404 0155969   3.7415 356.4638 11.27583479295981
JAS-2 (FO-29)           
1 24278U 96046B   26169.05046237 -.00000003  00000+0  30027-4 0  9998
2 24278  98.5238  17.8043 0350914  94.1986 269.9331 13.53274469473283
TECHSAT 1B (GO-32)      
1 25397U 98043D   26168.97754884  .00000036  00000+0  35812-4 0  9996
2 25397  99.0067 161.7561 0001106 161.1376 198.9843 14.24428526451447
ISS (ZARYA)             
1 25544U 98067A   26169.15704105  .00009674  00000+0  18166-3 0  9997
2 25544  51.6334 295.2921 0004743 200.3344 159.7456 15.49293017571908
PCSAT (NO-44)           
1 26931U 01043C   26169.20699556  .00000076  00000+0  59168-4 0  9990
2 26931  67.0505 241.6342 0006073 264.6735  95.3674 14.31956418290598
SAUDISAT 1C (SO-50)     
1 27607U 02058C   26169.30164588  .00000775  00000+0  10896-3 0  9991
2 27607  64.5511 125.5368 0075196 262.2633  96.9930 14.83049007264620
CUTE-1 (CO-55)          
1 27844U 03031E   26169.02064842  .00000221  00000+0  11471-3 0  9993
2 27844  98.6736 177.5689 0009609 175.5784 184.5482 14.24336174191794
CUBESAT XI-IV (CO-57)   
1 27848U 03031J   26168.93924090  .00000186  00000+0  10079-3 0  9999
2 27848  98.6765 177.2007 0009073 194.7196 165.3719 14.23621196191482
MOZHAETS 4 (RS22)       
1 27939U 03042A   26169.30172678  .00000839  00000+0  13752-3 0  9997
2 27939  98.3464 353.6914 0009925 265.8597 171.6955 14.73469081215717
CUBESAT XI-V            
1 28895U 05043F   26168.94617719  .00001113  00000+0  18286-3 0  9994
2 28895  98.2987 324.5839 0013704 198.2082 161.8635 14.72633352101868
CUTE-1.7+APD II (CO-65) 
1 32785U 08021C   26169.24313395  .00004157  00000+0  26362-3 0  9998
2 32785  97.8274 150.6836 0009640  35.5766 324.6103 15.09458737985352
SEEDS II (CO-66)        
1 32791U 08021J   26168.98425388  .00015010  00000+0  47643-3 0  9996
2 32791  97.7517 166.9199 0000950   0.1361 359.9880 15.32775092987418
YUBILEINY (RS30)        
1 32953U 08025A   26169.22515494  .00000059  00000+0  35271-3 0  9997
2 32953  82.5036 354.7940 0018814 311.5563  48.3903 12.43179619819824
KKS-1 (KISEKI)          
1 33499U 09002H   26169.26859024  .00001041  00000+0  13457-3 0  9997
2 33499  98.1189  91.7280 0006472 291.6711  68.3813 14.83126512936357
SWISSCUBE               
1 35932U 09051B   26169.19492217  .00000766  00000+0  16096-3 0  9999
2 35932  98.4035  77.1008 0006026 199.5178 160.5793 14.62483315889306
BEESAT-1                
1 35933U 09051C   26168.58880448  .00000640  00000+0  13834-3 0  9997
2 35933  98.3963  76.1188 0004244 215.3453 144.7466 14.61721012889249
ITUPSAT1                
1 35935U 09051E   26169.19666220  .00000591  00000+0  13197-3 0  9994
2 35935  98.4047  75.9267 0006285 230.1057 129.9590 14.60442029888881
XIWANG-1 (HOPE-1)       
1 36122U 09072B   26169.30786964  .00000305  00000+0  91457-3 0  9995
2 36122 100.4031 123.1226 0006868 228.8335 131.2186 13.16440161793155
O/OREOS (USA 219)       
1 37224U 10062C   26169.13372697  .00001822  00000+0  17759-3 0  9993
2 37224  71.9713  78.1955 0012568  61.0005 299.2424 14.93748266116782
JUGNU                   
1 37839U 11058B   26168.10338876  .00000397  00000+0  67695-4 0  9999
2 37839  19.9617 308.9384 0018637  75.2680  81.6214 14.13776752759010
SRMSAT                  
1 37841U 11058D   26169.08644889  .00000356  00000+0  49076-4 0  9992
2 37841  19.9725  54.0235 0011766 213.5570 297.0907 14.11575739757940
STRAND-1                
1 39090U 13009E   26169.03071324  .00000199  00000+0  81412-4 0  9996
2 39090  98.3922 349.2443 0007770 222.4272 137.6315 14.37163663697184
ZACUBE-1 (TSHEPISOSAT)  
1 39417U 13066B   26168.94052998  .00002469  00000+0  19407-3 0  9993
2 39417  97.8077 131.2813 0040898 245.0967 114.6003 15.01192546680840
GOMX-1                  
1 39430U 13066Q   26169.27545743  .00001467  00000+0  22484-3 0  9996
2 39430  97.6476   9.6692 0130171  74.0743 287.4763 14.69463611670078
